     3.00           N                   E                   RINEX VERSION / TYPE
BRD_USR             ESA                 20190114 231708  UTCPGM / RUN BY / DATE
 GAL   3.6500E+01  1.4844E-01  3.9673E-04  0.0000E+00       IONOSPHERIC CORR
GAUT  2.7939677238E-09-1.776356839E-15  86400 2036 GSTB   0 TIME SYSTEM CORR
GPGA -1.4551915228E-09-1.110223025E-14 172800 2036 GSTB   0 TIME SYSTEM CORR
                                                            END OF HEADER
E26 2019 01 14 20 40 00 5.019538977649E-03-4.335731773608E-11 0.000000000000E+00
     1.200000000000E+01-2.150000000000E+01 2.744757187297E-09-1.565808678765E+00
    -1.018866896629E-06 3.168073017150E-04 7.981434464455E-06 5.440613058090E+03
     1.608000000000E+05 2.793967723846E-08-9.818093896505E-01-3.352761268616E-08
     9.783411619849E-01 1.800312500000E+02-1.978476608338E+00-5.523087201608E-09
     1.828647599084E-10 5.210000000000E+02 2.036000000000E+03 0.000000000000E+00
     3.120000000000E+00 0.000000000000E+00 1.164153218269E-09 1.396983861923E-09
     1.620250000000E+05 0.000000000000E+00 0.000000000000E+00 0.000000000000E+00
E27 2019 01 14 20 40 00 5.496838130057E-04-7.730704965070E-12 0.000000000000E+00
     1.200000000000E+01 7.381250000000E+01 2.998339178576E-09 1.597396852962E-01
     3.414228558540E-06 1.722375163808E-04 4.431232810020E-06 5.440622045517E+03
     1.608000000000E+05 3.725290298462E-09-3.073311808047E+00 4.097819328308E-08
     9.896339562151E-01 2.591875000000E+02-8.133809964691E-01-5.628091575462E-09
    -3.928735076157E-12 5.210000000000E+02 2.036000000000E+03 0.000000000000E+00
     3.120000000000E+00 0.000000000000E+00-2.561137080193E-09-3.026798367500E-09
     1.620250000000E+05 0.000000000000E+00 0.000000000000E+00 0.000000000000E+00
E30 2019 01 14 20 40 00 5.188365234062E-03-3.051070507354E-11 0.000000000000E+00
     1.200000000000E+01 7.128125000000E+01 3.027626112780E-09-5.093387719357E-01
     3.278255462646E-06 3.140197368339E-04 4.233792424202E-06 5.440611484528E+03
     1.608000000000E+05-7.078051567078E-08-3.067316936531E+00 7.450580596924E-09
     9.876499511048E-01 2.608437500000E+02 6.216365066843E-01-5.700951753238E-09
    -5.393081786361E-11 5.210000000000E+02 2.036000000000E+03 0.000000000000E+00
     3.120000000000E+00 0.000000000000E+00-3.026798367500E-09-3.725290298462E-09
     1.620250000000E+05 0.000000000000E+00 0.000000000000E+00 0.000000000000E+00
E31 2019 01 14 20 40 00 9.325920254923E-04-9.634959496907E-12 0.000000000000E+00
     1.200000000000E+01 5.637500000000E+01 2.961551931954E-09-1.452146575414E+00
     2.576038241386E-06 2.155210822821E-04 4.447996616364E-06 5.440623582840E+03
     1.608000000000E+05-1.676380634308E-08-3.073359458215E+00-3.725290298462E-08
     9.896371175811E-01 2.573750000000E+02-1.557648903541E+00-5.650949670450E-09
    -8.750364487804E-11 5.210000000000E+02 2.036000000000E+03 0.000000000000E+00
     3.120000000000E+00 0.000000000000E+00-2.328306436539E-10-2.328306436539E-10
     1.620250000000E+05 0.000000000000E+00 0.000000000000E+00 0.000000000000E+00
E33 2019 01 14 20 40 00 8.479197858833E-04 2.842170943040E-14 0.000000000000E+00
     1.200000000000E+01-1.512500000000E+01 2.642610075317E-09-2.930980275893E+00
    -7.394701242447E-07 3.724718699232E-04 8.495524525642E-06 5.440599042892E+03
     1.608000000000E+05 0.000000000000E+00-9.907422190645E-01-6.705522537231E-08
     9.852216972726E-01 1.734687500000E+02-1.404708422601E+00-5.426654613375E-09
     1.371485699313E-10 5.210000000000E+02 2.036000000000E+03 0.000000000000E+00
     3.120000000000E+00 4.550000000000E+02-8.149072527885E-09-9.313225746155E-09
     1.620250000000E+05 0.000000000000E+00 0.000000000000E+00 0.000000000000E+00
E36 2019 01 14 20 40 00 7.596383802593E-04-4.447997525858E-12 0.000000000000E+00
     1.200000000000E+01-1.875000000000E+01 2.706898467472E-09 1.110103295344E+00
    -9.760260581970E-07 3.365441225469E-04 9.840354323387E-06 5.440601081848E+03
     1.608000000000E+05 3.539025783539E-08-9.907161557160E-01 4.284083843231E-08
     9.852289694383E-01 1.392812500000E+02-1.517158015561E+00-5.476299538429E-09
     2.328668426958E-10 5.210000000000E+02 2.036000000000E+03 0.000000000000E+00
     3.120000000000E+00 4.550000000000E+02 9.313225746155E-10 1.164153218269E-09
     1.620250000000E+05 0.000000000000E+00 0.000000000000E+00 0.000000000000E+00
E33 2019 01 14 20 40 00 8.479206589982E-04 2.842170943040E-14 0.000000000000E+00
     1.200000000000E+01-1.512500000000E+01 2.642610075317E-09-2.930980275893E+00
    -7.394701242447E-07 3.724718699232E-04 8.495524525642E-06 5.440599042892E+03
     1.608000000000E+05 0.000000000000E+00-9.907422190645E-01-6.705522537231E-08
     9.852216972726E-01 1.734687500000E+02-1.404708422601E+00-5.426654613375E-09
     1.371485699313E-10 2.580000000000E+02 2.036000000000E+03 0.000000000000E+00
     3.120000000000E+00 5.600000000000E+01-8.149072527885E-09 0.000000000000E+00
     1.620500000000E+05 0.000000000000E+00 0.000000000000E+00 0.000000000000E+00
E01 2019 01 14 20 50 00-5.208196234889E-04-8.157030606526E-12 0.000000000000E+00
     1.300000000000E+01 5.987500000000E+01 2.964052036093E-09-1.568096945966E+00
     2.831220626831E-06 8.273310959339E-05 4.498288035393E-06 5.440619415283E+03
     1.614000000000E+05 8.568167686462E-08-3.070720949407E+00-5.774199962616E-08
     9.900975637320E-01 2.559062500000E+02-5.993211191931E-01-5.705594803782E-09
    -7.393165097859E-11 5.210000000000E+02 2.036000000000E+03 0.000000000000E+00
     3.120000000000E+00 0.000000000000E+00-4.656612873077E-09-5.122274160385E-09
     1.620850000000E+05 0.000000000000E+00 0.000000000000E+00 0.000000000000E+00
E04 2019 01 14 20 50 00-2.000891836360E-04-7.844391802792E-12 0.000000000000E+00
     1.300000000000E+01-3.434375000000E+01 3.331210186847E-09-2.993768898331E+00
    -1.562759280205E-06 7.444259244949E-05 9.292736649513E-06 5.440615804672E+03
     1.614000000000E+05-1.490116119385E-08 1.119947963059E+00 2.235174179077E-08
     9.524764836116E-01 1.335000000000E+02 2.134671382729E+00-5.636663361083E-09
    -1.175048945505E-10 5.210000000000E+02 2.036000000000E+03 0.000000000000E+00
     3.120000000000E+00 0.000000000000E+00-7.916241884232E-09-8.847564458847E-09
     1.620850000000E+05 0.000000000000E+00 0.000000000000E+00 0.000000000000E+00
E05 2019 01 14 20 50 00 1.250266213901E-04-6.565414878423E-12 0.000000000000E+00
     1.300000000000E+01-3.609375000000E+01 3.361211436519E-09 2.216733877715E+00
    -1.756474375725E-06 1.314554829150E-04 9.905546903610E-06 5.440620105743E+03
     1.614000000000E+05 3.539025783539E-08 1.119881716277E+00-2.048909664154E-08
     9.524464894022E-01 1.237812500000E+02 1.634125711049E+00-5.670236188097E-09
    -2.250093725435E-10 5.210000000000E+02 2.036000000000E+03 0.000000000000E+00
     3.120000000000E+00 0.000000000000E+00-1.396983861923E-09-1.396983861923E-09
     1.620850000000E+05 0.000000000000E+00 0.000000000000E+00 0.000000000000E+00
E12 2019 01 14 20 50 00 5.943046126049E-03 8.435563358944E-11 0.000000000000E+00
     1.300000000000E+01-9.875000000000E+00 2.665111012571E-09 2.092475242827E+00
    -4.675239324570E-07 4.071803996339E-04 8.426606655121E-06 5.440604265213E+03
     1.614000000000E+05-1.229345798492E-07-9.854437623853E-01 1.303851604462E-08
     9.819984337764E-01 1.713437500000E+02-8.416229050179E-01-5.402725045184E-09
     2.017941198208E-10 5.210000000000E+02 2.036000000000E+03 0.000000000000E+00
     3.120000000000E+00 0.000000000000E+00-1.559965312481E-08-1.606531441212E-08
     1.620850000000E+05 0.000000000000E+00 0.000000000000E+00 0.000000000000E+00
E15 2019 01 14 20 50 00 9.229584247805E-04-1.051603248925E-12 0.000000000000E+00
     1.300000000000E+01-3.034375000000E+01 2.600108304947E-09-3.301996181852E-01
    -1.285225152969E-06 3.905554767698E-04 9.346753358841E-06 5.440598110199E+03
     1.614000000000E+05-1.676380634308E-08-9.907220410354E-01 1.862645149231E-08
     9.851832517854E-01 1.527812500000E+02-1.575298575680E+00-5.383795685272E-09
     2.275094766829E-10 5.210000000000E+02 2.036000000000E+03 0.000000000000E+00
     3.120000000000E+00 4.550000000000E+02 1.629814505577E-09 1.396983861923E-09
     1.620850000000E+05 0.000000000000E+00 0.000000000000E+00 0.000000000000E+00
E19 2019 01 14 20 50 00-9.120616596192E-06 3.126388037344E-13 0.000000000000E+00
     1.300000000000E+01-4.118750000000E+01 3.223705708854E-09-2.375601777944E+00
    -1.881271600723E-06 1.342110335827E-04 8.916482329369E-06 5.440620328903E+03
     1.614000000000E+05-2.235174179077E-08 1.116648594176E+00 1.117587089539E-08
     9.582058223301E-01 1.486562500000E+02 2.377074665810E+00-5.602019060866E-09
    -1.232194182976E-10 5.210000000000E+02 2.036000000000E+03 0.000000000000E+00
     3.120000000000E+00 0.000000000000E+00-8.614733815193E-09-9.080395102501E-09
     1.620850000000E+05 0.000000000000E+00 0.000000000000E+00 0.000000000000E+00
E21 2019 01 14 20 50 00-5.144453025423E-04-1.918465386552E-12 0.000000000000E+00
     1.300000000000E+01 6.284375000000E+01 3.011196857007E-09-1.927850812622E+00
     2.956017851830E-06 4.457740578800E-05 4.297122359276E-06 5.440627031326E+03
     1.614000000000E+05 2.235174179077E-08-3.073331011773E+00 8.381903171539E-08
     9.896605067154E-01 2.627187500000E+02 5.617143522632E-01-5.691665652149E-09
     8.571785620706E-12 5.210000000000E+02 2.036000000000E+03 0.000000000000E+00
     3.120000000000E+00 0.000000000000E+00-2.328306436539E-09-2.793967723846E-09
     1.620850000000E+05 0.000000000000E+00 0.000000000000E+00 0.000000000000E+00
